[{"OBJECT_NAME":"QIANFAN-52","OBJECT_ID":"2024-232S","EPOCH":"2026-03-03T19:53:58.170336","MEAN_MOTION":13.5100056,"ECCENTRICITY":0.0014263,"INCLINATION":89.005,"RA_OF_ASC_NODE":32.9211,"ARG_OF_PERICENTER":325.2816,"MEAN_ANOMALY":34.7403,"EPHEMERIS_TYPE":0,"CLASSIFICATION_TYPE":"U","NORAD_CAT_ID":62253,"ELEMENT_SET_NO":999,"REV_AT_EPOCH":7889,"BSTAR":9.5006e-5,"MEAN_MOTION_DOT":7.3e-7,"MEAN_MOTION_DDOT":0},{"OBJECT_NAME":"QIANFAN-53","OBJECT_ID":"2024-232T","EPOCH":"2026-03-03T17:37:39.256896","MEAN_MOTION":13.51003293,"ECCENTRICITY":0.0013199,"INCLINATION":89.0057,"RA_OF_ASC_NODE":33.0412,"ARG_OF_PERICENTER":327.3715,"MEAN_ANOMALY":32.662,"EPHEMERIS_TYPE":0,"CLASSIFICATION_TYPE":"U","NORAD_CAT_ID":62254,"ELEMENT_SET_NO":999,"REV_AT_EPOCH":7884,"BSTAR":8.7694e-5,"MEAN_MOTION_DOT":6.9e-7,"MEAN_MOTION_DDOT":0},{"OBJECT_NAME":"QIANFAN-54","OBJECT_ID":"2024-232U","EPOCH":"2026-03-03T18:36:56.978208","MEAN_MOTION":13.51002713,"ECCENTRICITY":0.0003224,"INCLINATION":89.0049,"RA_OF_ASC_NODE":32.7084,"ARG_OF_PERICENTER":41.9816,"MEAN_ANOMALY":318.1582,"EPHEMERIS_TYPE":0,"CLASSIFICATION_TYPE":"U","NORAD_CAT_ID":62255,"ELEMENT_SET_NO":999,"REV_AT_EPOCH":11035,"BSTAR":0.00010094,"MEAN_MOTION_DOT":7.7e-7,"MEAN_MOTION_DDOT":0},{"OBJECT_NAME":"QIANFAN-55","OBJECT_ID":"2025-016A","EPOCH":"2026-03-03T15:41:08.774592","MEAN_MOTION":13.50996119,"ECCENTRICITY":0.0019378,"INCLINATION":88.9694,"RA_OF_ASC_NODE":94.8397,"ARG_OF_PERICENTER":112.8909,"MEAN_ANOMALY":247.429,"EPHEMERIS_TYPE":0,"CLASSIFICATION_TYPE":"U","NORAD_CAT_ID":62785,"ELEMENT_SET_NO":999,"REV_AT_EPOCH":5811,"BSTAR":6.5823e-5,"MEAN_MOTION_DOT":5.5e-7,"MEAN_MOTION_DDOT":0},{"OBJECT_NAME":"QIANFAN-56","OBJECT_ID":"2025-016B","EPOCH":"2026-03-03T17:51:22.617792","MEAN_MOTION":13.50998034,"ECCENTRICITY":0.0018012,"INCLINATION":88.9667,"RA_OF_ASC_NODE":94.6448,"ARG_OF_PERICENTER":114.6185,"MEAN_ANOMALY":245.6845,"EPHEMERIS_TYPE":0,"CLASSIFICATION_TYPE":"U","NORAD_CAT_ID":62786,"ELEMENT_SET_NO":999,"REV_AT_EPOCH":5817,"BSTAR":7.7611e-5,"MEAN_MOTION_DOT":6.2e-7,"MEAN_MOTION_DDOT":0},{"OBJECT_NAME":"QIANFAN-57","OBJECT_ID":"2025-016C","EPOCH":"2026-03-03T18:38:51.790848","MEAN_MOTION":13.50996945,"ECCENTRICITY":0.0001357,"INCLINATION":88.9698,"RA_OF_ASC_NODE":94.8201,"ARG_OF_PERICENTER":96.9609,"MEAN_ANOMALY":263.1697,"EPHEMERIS_TYPE":0,"CLASSIFICATION_TYPE":"U","NORAD_CAT_ID":62787,"ELEMENT_SET_NO":999,"REV_AT_EPOCH":5814,"BSTAR":8.3597e-5,"MEAN_MOTION_DOT":6.6e-7,"MEAN_MOTION_DDOT":0},{"OBJECT_NAME":"QIANFAN-58","OBJECT_ID":"2025-016D","EPOCH":"2026-03-03T17:57:17.937792","MEAN_MOTION":13.50998514,"ECCENTRICITY":0.0015983,"INCLINATION":88.9668,"RA_OF_ASC_NODE":94.6297,"ARG_OF_PERICENTER":107.6933,"MEAN_ANOMALY":252.5965,"EPHEMERIS_TYPE":0,"CLASSIFICATION_TYPE":"U","NORAD_CAT_ID":62788,"ELEMENT_SET_NO":999,"REV_AT_EPOCH":5818,"BSTAR":7.7888e-5,"MEAN_MOTION_DOT":6.3e-7,"MEAN_MOTION_DDOT":0},{"OBJECT_NAME":"QIANFAN-59","OBJECT_ID":"2025-016E","EPOCH":"2026-03-03T18:33:03.611808","MEAN_MOTION":13.50994456,"ECCENTRICITY":0.0016323,"INCLINATION":88.9691,"RA_OF_ASC_NODE":94.7201,"ARG_OF_PERICENTER":110.971,"MEAN_ANOMALY":249.3189,"EPHEMERIS_TYPE":0,"CLASSIFICATION_TYPE":"U","NORAD_CAT_ID":62789,"ELEMENT_SET_NO":999,"REV_AT_EPOCH":5818,"BSTAR":7.5632e-5,"MEAN_MOTION_DOT":6.1e-7,"MEAN_MOTION_DDOT":0},{"OBJECT_NAME":"QIANFAN-60","OBJECT_ID":"2025-016F","EPOCH":"2026-03-03T17:33:49.351680","MEAN_MOTION":13.50992372,"ECCENTRICITY":0.0017899,"INCLINATION":88.9672,"RA_OF_ASC_NODE":94.6803,"ARG_OF_PERICENTER":108.1311,"MEAN_ANOMALY":252.1791,"EPHEMERIS_TYPE":0,"CLASSIFICATION_TYPE":"U","NORAD_CAT_ID":62790,"ELEMENT_SET_NO":999,"REV_AT_EPOCH":5816,"BSTAR":4.898e-5,"MEAN_MOTION_DOT":4.4e-7,"MEAN_MOTION_DDOT":0},{"OBJECT_NAME":"QIANFAN-61","OBJECT_ID":"2025-016G","EPOCH":"2026-03-03T18:21:13.778784","MEAN_MOTION":13.5099378,"ECCENTRICITY":0.0016826,"INCLINATION":88.974,"RA_OF_ASC_NODE":94.8951,"ARG_OF_PERICENTER":107.37,"MEAN_ANOMALY":252.9293,"EPHEMERIS_TYPE":0,"CLASSIFICATION_TYPE":"U","NORAD_CAT_ID":62791,"ELEMENT_SET_NO":999,"REV_AT_EPOCH":5818,"BSTAR":7.5165e-5,"MEAN_MOTION_DOT":6.1e-7,"MEAN_MOTION_DDOT":0},{"OBJECT_NAME":"QIANFAN-62","OBJECT_ID":"2025-016H","EPOCH":"2026-03-03T18:27:03.564864","MEAN_MOTION":13.50996447,"ECCENTRICITY":0.0018206,"INCLINATION":88.9686,"RA_OF_ASC_NODE":94.7192,"ARG_OF_PERICENTER":107.7948,"MEAN_ANOMALY":252.5191,"EPHEMERIS_TYPE":0,"CLASSIFICATION_TYPE":"U","NORAD_CAT_ID":62792,"ELEMENT_SET_NO":999,"REV_AT_EPOCH":5817,"BSTAR":6.3768e-5,"MEAN_MOTION_DOT":5.3e-7,"MEAN_MOTION_DDOT":0},{"OBJECT_NAME":"QIANFAN-63","OBJECT_ID":"2025-016J","EPOCH":"2026-03-03T17:16:00.262272","MEAN_MOTION":13.50995015,"ECCENTRICITY":0.0018226,"INCLINATION":88.9693,"RA_OF_ASC_NODE":94.6813,"ARG_OF_PERICENTER":112.7032,"MEAN_ANOMALY":247.6048,"EPHEMERIS_TYPE":0,"CLASSIFICATION_TYPE":"U","NORAD_CAT_ID":62793,"ELEMENT_SET_NO":999,"REV_AT_EPOCH":5820,"BSTAR":5.7072e-5,"MEAN_MOTION_DOT":4.9e-7,"MEAN_MOTION_DDOT":0},{"OBJECT_NAME":"QIANFAN-64","OBJECT_ID":"2025-016K","EPOCH":"2026-03-03T14:42:00.459648","MEAN_MOTION":13.50993014,"ECCENTRICITY":0.0016205,"INCLINATION":88.968,"RA_OF_ASC_NODE":94.6556,"ARG_OF_PERICENTER":106.5459,"MEAN_ANOMALY":253.7474,"EPHEMERIS_TYPE":0,"CLASSIFICATION_TYPE":"U","NORAD_CAT_ID":62794,"ELEMENT_SET_NO":999,"REV_AT_EPOCH":5818,"BSTAR":5.8871e-5,"MEAN_MOTION_DOT":5.0e-7,"MEAN_MOTION_DDOT":0},{"OBJECT_NAME":"QIANFAN-65","OBJECT_ID":"2025-016L","EPOCH":"2026-03-03T18:09:15.412032","MEAN_MOTION":13.51008651,"ECCENTRICITY":0.0016053,"INCLINATION":88.9676,"RA_OF_ASC_NODE":94.6637,"ARG_OF_PERICENTER":107.66,"MEAN_ANOMALY":252.6305,"EPHEMERIS_TYPE":0,"CLASSIFICATION_TYPE":"U","NORAD_CAT_ID":62795,"ELEMENT_SET_NO":999,"REV_AT_EPOCH":5818,"BSTAR":7.5992e-5,"MEAN_MOTION_DOT":6.1e-7,"MEAN_MOTION_DDOT":0},{"OBJECT_NAME":"QIANFAN-66","OBJECT_ID":"2025-016M","EPOCH":"2026-03-03T18:50:42.906048","MEAN_MOTION":13.50996793,"ECCENTRICITY":0.0017173,"INCLINATION":88.9695,"RA_OF_ASC_NODE":94.6468,"ARG_OF_PERICENTER":103.877,"MEAN_ANOMALY":256.4293,"EPHEMERIS_TYPE":0,"CLASSIFICATION_TYPE":"U","NORAD_CAT_ID":62796,"ELEMENT_SET_NO":999,"REV_AT_EPOCH":5823,"BSTAR":8.33e-5,"MEAN_MOTION_DOT":6.6e-7,"MEAN_MOTION_DDOT":0},{"OBJECT_NAME":"QIANFAN-67","OBJECT_ID":"2025-016N","EPOCH":"2026-03-03T18:56:33.495648","MEAN_MOTION":13.5099511,"ECCENTRICITY":0.0017107,"INCLINATION":88.9686,"RA_OF_ASC_NODE":94.664,"ARG_OF_PERICENTER":109.9276,"MEAN_ANOMALY":250.372,"EPHEMERIS_TYPE":0,"CLASSIFICATION_TYPE":"U","NORAD_CAT_ID":62797,"ELEMENT_SET_NO":999,"REV_AT_EPOCH":5820,"BSTAR":6.4778e-5,"MEAN_MOTION_DOT":5.4e-7,"MEAN_MOTION_DDOT":0},{"OBJECT_NAME":"QIANFAN-68","OBJECT_ID":"2025-016P","EPOCH":"2026-03-03T18:44:55.793184","MEAN_MOTION":13.51005142,"ECCENTRICITY":0.0017169,"INCLINATION":88.9689,"RA_OF_ASC_NODE":94.713,"ARG_OF_PERICENTER":108.3754,"MEAN_ANOMALY":251.9266,"EPHEMERIS_TYPE":0,"CLASSIFICATION_TYPE":"U","NORAD_CAT_ID":62798,"ELEMENT_SET_NO":999,"REV_AT_EPOCH":5818,"BSTAR":0.00010069,"MEAN_MOTION_DOT":7.7e-7,"MEAN_MOTION_DDOT":0}]
