QIANFAN-52              
1 62253U 24232S   26062.82914549  .00000073  00000+0  95006-4 0  9992
2 62253  89.0050  32.9211 0014263 325.2816  34.7403 13.51000560 78897
QIANFAN-53              
1 62254U 24232T   26062.73448214  .00000069  00000+0  87694-4 0  9993
2 62254  89.0057  33.0412 0013199 327.3715  32.6620 13.51003293 78847
QIANFAN-54              
1 62255U 24232U   26062.77565947  .00000077  00000+0  10094-3 0  9999
2 62255  89.0049  32.7084 0003224  41.9816 318.1582 13.51002713110357
QIANFAN-55              
1 62785U 25016A   26062.65357378  .00000055  00000+0  65823-4 0  9999
2 62785  88.9694  94.8397 0019378 112.8909 247.4290 13.50996119 58119
QIANFAN-56              
1 62786U 25016B   26062.74401178  .00000062  00000+0  77611-4 0  9994
2 62786  88.9667  94.6448 0018012 114.6185 245.6845 13.50998034 58175
QIANFAN-57              
1 62787U 25016C   26062.77698832  .00000066  00000+0  83597-4 0  9997
2 62787  88.9698  94.8201 0001357  96.9609 263.1697 13.50996945 58142
QIANFAN-58              
1 62788U 25016D   26062.74812428  .00000063  00000+0  77888-4 0  9997
2 62788  88.9668  94.6297 0015983 107.6933 252.5965 13.50998514 58181
QIANFAN-59              
1 62789U 25016E   26062.77295847  .00000061  00000+0  75632-4 0  9994
2 62789  88.9691  94.7201 0016323 110.9710 249.3189 13.50994456 58186
QIANFAN-60              
1 62790U 25016F   26062.73182120  .00000044  00000+0  48980-4 0  9998
2 62790  88.9672  94.6803 0017899 108.1311 252.1791 13.50992372 58163
QIANFAN-61              
1 62791U 25016G   26062.76474281  .00000061  00000+0  75165-4 0  9998
2 62791  88.9740  94.8951 0016826 107.3700 252.9293 13.50993780 58189
QIANFAN-62              
1 62792U 25016H   26062.76879126  .00000053  00000+0  63768-4 0  9993
2 62792  88.9686  94.7192 0018206 107.7948 252.5191 13.50996447 58172
QIANFAN-63              
1 62793U 25016J   26062.71944748  .00000049  00000+0  57072-4 0  9998
2 62793  88.9693  94.6813 0018226 112.7032 247.6048 13.50995015 58202
QIANFAN-64              
1 62794U 25016K   26062.61250532  .00000050  00000+0  58871-4 0  9999
2 62794  88.9680  94.6556 0016205 106.5459 253.7474 13.50993014 58187
QIANFAN-65              
1 62795U 25016L   26062.75642838  .00000061  00000+0  75992-4 0  9994
2 62795  88.9676  94.6637 0016053 107.6600 252.6305 13.51008651 58180
QIANFAN-66              
1 62796U 25016M   26062.78521882  .00000066  00000+0  83300-4 0  9990
2 62796  88.9695  94.6468 0017173 103.8770 256.4293 13.50996793 58230
QIANFAN-67              
1 62797U 25016N   26062.78927657  .00000054  00000+0  64778-4 0  9996
2 62797  88.9686  94.6640 0017107 109.9276 250.3720 13.50995110 58205
QIANFAN-68              
1 62798U 25016P   26062.78120131  .00000077  00000+0  10069-3 0  9997
2 62798  88.9689  94.7130 0017169 108.3754 251.9266 13.51005142 58183
